{
  "type": "FeatureCollection",
  "features": [
    {
      "type": "Feature",
      "properties": {
        "norad_id": 41890,
        "name": "CYGFM07",
        "group": "weather",
        "lat": -24.06212220744687,
        "lon": -93.74722133615958,
        "alt_km": 410.2405951210385,
        "timestamp": "2025-12-24T05:51:19.248897+00:00",
        "meta_object_name": "CYGFM07",
        "meta_object_id": "2016-078G",
        "meta_epoch": "2025-12-23T22:19:24.477024",
        "meta_mean_motion": 15.50462018,
        "meta_eccentricity": 0.00095704,
        "meta_inclination": 34.9479,
        "meta_ra_of_asc_node": 308.059,
        "meta_arg_of_pericenter": 309.8336,
        "meta_mean_anomaly": 50.1544,
        "meta_ephemeris_type": 0,
        "meta_classification_type": "U",
        "meta_norad_cat_id": 41890,
        "meta_element_set_no": 999,
        "meta_rev_at_epoch": 50169,
        "meta_bstar": 0.00037900965,
        "meta_mean_motion_dot": 0.00022329,
        "meta_mean_motion_ddot": 0,
        "tle_line1": "1 41890U 16078G   25357.93014441  .00022329  00000+0  37901-3 0  9992",
        "tle_line2": "2 41890  34.9479 308.0590 0009570 309.8336  50.1544 15.50462018501690"
      },
      "geometry": {
        "type": "Point",
        "coordinates": [
          -93.74722133615958,
          -24.06212220744687
        ]
      }
    },
    {
      "type": "Feature",
      "properties": {
        "norad_id": 41891,
        "name": "CYGFM03",
        "group": "weather",
        "lat": 19.117629985290957,
        "lon": 98.16224118478,
        "alt_km": 417.50769034319546,
        "timestamp": "2025-12-24T05:51:19.248907+00:00",
        "meta_object_name": "CYGFM03",
        "meta_object_id": "2016-078H",
        "meta_epoch": "2025-12-23T23:03:02.711520",
        "meta_mean_motion": 15.50358285,
        "meta_eccentricity": 0.00093652,
        "meta_inclination": 34.9435,
        "meta_ra_of_asc_node": 309.7862,
        "meta_arg_of_pericenter": 297.5993,
        "meta_mean_anomaly": 62.3778,
        "meta_ephemeris_type": 0,
        "meta_classification_type": "U",
        "meta_norad_cat_id": 41891,
        "meta_element_set_no": 999,
        "meta_rev_at_epoch": 50167,
        "meta_bstar": 0.00037091831,
        "meta_mean_motion_dot": 0.00021767,
        "meta_mean_motion_ddot": 0,
        "tle_line1": "1 41891U 16078H   25357.96044805  .00021767  00000+0  37092-3 0  9999",
        "tle_line2": "2 41891  34.9435 309.7862 0009365 297.5993  62.3778 15.50358285501679"
      },
      "geometry": {
        "type": "Point",
        "coordinates": [
          98.16224118478,
          19.117629985290957
        ]
      }
    },
    {
      "type": "Feature",
      "properties": {
        "norad_id": 43010,
        "name": "FENGYUN 3D",
        "group": "weather",
        "lat": 80.90304724588493,
        "lon": -133.8612070603667,
        "alt_km": 818.3971507151446,
        "timestamp": "2025-12-24T05:51:19.248918+00:00",
        "meta_object_name": "FENGYUN 3D",
        "meta_object_id": "2017-072A",
        "meta_epoch": "2025-12-23T22:39:38.982816",
        "meta_mean_motion": 14.19687168,
        "meta_eccentricity": 0.00014819,
        "meta_inclination": 98.991,
        "meta_ra_of_asc_node": 324.4225,
        "meta_arg_of_pericenter": 150.8272,
        "meta_mean_anomaly": 209.2986,
        "meta_ephemeris_type": 0,
        "meta_classification_type": "U",
        "meta_norad_cat_id": 43010,
        "meta_element_set_no": 999,
        "meta_rev_at_epoch": 42012,
        "meta_bstar": 2.641189e-05,
        "meta_mean_motion_dot": 1e-07,
        "meta_mean_motion_ddot": 0,
        "tle_line1": "1 43010U 17072A   25357.94420119  .00000010  00000+0  26412-4 0  9996",
        "tle_line2": "2 43010  98.9910 324.4225 0001481 150.8272 209.2986 14.19687168420123"
      },
      "geometry": {
        "type": "Point",
        "coordinates": [
          -133.8612070603667,
          80.90304724588493
        ]
      }
    },
    {
      "type": "Feature",
      "properties": {
        "norad_id": 43013,
        "name": "NOAA 20 (JPSS-1)",
        "group": "weather",
        "lat": -55.973861254112116,
        "lon": 101.21209708279801,
        "alt_km": 835.4330963594412,
        "timestamp": "2025-12-24T05:51:19.248929+00:00",
        "meta_object_name": "NOAA 20 (JPSS-1)",
        "meta_object_id": "2017-073A",
        "meta_epoch": "2025-12-23T21:58:34.023648",
        "meta_mean_motion": 14.19528572,
        "meta_eccentricity": 0.00020911,
        "meta_inclination": 98.7614,
        "meta_ra_of_asc_node": 294.0909,
        "meta_arg_of_pericenter": 71.1101,
        "meta_mean_anomaly": 289.0301,
        "meta_ephemeris_type": 0,
        "meta_classification_type": "U",
        "meta_norad_cat_id": 43013,
        "meta_element_set_no": 999,
        "meta_rev_at_epoch": 41960,
        "meta_bstar": 6.2874532e-05,
        "meta_mean_motion_dot": 8.9e-07,
        "meta_mean_motion_ddot": 0,
        "tle_line1": "1 43013U 17073A   25357.91567157  .00000089  00000+0  62875-4 0  9990",
        "tle_line2": "2 43013  98.7614 294.0909 0002091  71.1101 289.0301 14.19528572419601"
      },
      "geometry": {
        "type": "Point",
        "coordinates": [
          101.21209708279801,
          -55.973861254112116
        ]
      }
    },
    {
      "type": "Feature",
      "properties": {
        "norad_id": 43226,
        "name": "GOES 17",
        "group": "weather",
        "lat": 0.0414403985566643,
        "lon": 91.34946049160162,
        "alt_km": 35798.64348439012,
        "timestamp": "2025-12-24T05:51:19.248941+00:00",
        "meta_object_name": "GOES 17",
        "meta_object_id": "2018-022A",
        "meta_epoch": "2025-12-23T19:33:14.560704",
        "meta_mean_motion": 1.00272405,
        "meta_eccentricity": 0.00030351,
        "meta_inclination": 0.4845,
        "meta_ra_of_asc_node": 89.0768,
        "meta_arg_of_pericenter": 190.7857,
        "meta_mean_anomaly": 16.5445,
        "meta_ephemeris_type": 0,
        "meta_classification_type": "U",
        "meta_norad_cat_id": 43226,
        "meta_element_set_no": 999,
        "meta_rev_at_epoch": 2866,
        "meta_bstar": 0,
        "meta_mean_motion_dot": -1.62e-06,
        "meta_mean_motion_ddot": 0,
        "tle_line1": "1 43226U 18022A   25357.81475186 -.00000162  00000+0  00000+0 0  9990",
        "tle_line2": "2 43226   0.4845  89.0768 0003035 190.7857  16.5445  1.00272405 28664"
      },
      "geometry": {
        "type": "Point",
        "coordinates": [
          91.34946049160162,
          0.0414403985566643
        ]
      }
    },
    {
      "type": "Feature",
      "properties": {
        "norad_id": 43491,
        "name": "FENGYUN 2H",
        "group": "weather",
        "lat": 0.02560989062565379,
        "lon": -99.80335785922827,
        "alt_km": 35776.54171841647,
        "timestamp": "2025-12-24T05:51:19.248954+00:00",
        "meta_object_name": "FENGYUN 2H",
        "meta_object_id": "2018-050A",
        "meta_epoch": "2025-12-23T22:04:08.084928",
        "meta_mean_motion": 1.00270734,
        "meta_eccentricity": 0.00023814,
        "meta_inclination": 2.5779,
        "meta_ra_of_asc_node": 81.212,
        "meta_arg_of_pericenter": 166.7018,
        "meta_mean_anomaly": 255.1644,
        "meta_ephemeris_type": 0,
        "meta_classification_type": "U",
        "meta_norad_cat_id": 43491,
        "meta_element_set_no": 999,
        "meta_rev_at_epoch": 2768,
        "meta_bstar": 0,
        "meta_mean_motion_dot": -1.1e-06,
        "meta_mean_motion_ddot": 0,
        "tle_line1": "1 43491U 18050A   25357.91953802 -.00000110  00000+0  00000+0 0  9995",
        "tle_line2": "2 43491   2.5779  81.2120 0002381 166.7018 255.1644  1.00270734 27684"
      },
      "geometry": {
        "type": "Point",
        "coordinates": [
          -99.80335785922827,
          0.02560989062565379
        ]
      }
    },
    {
      "type": "Feature",
      "properties": {
        "norad_id": 43689,
        "name": "METOP-C",
        "group": "weather",
        "lat": 77.56468721269236,
        "lon": -80.24153651005393,
        "alt_km": 812.9421761768217,
        "timestamp": "2025-12-24T05:51:19.248974+00:00",
        "meta_object_name": "METOP-C",
        "meta_object_id": "2018-087A",
        "meta_epoch": "2025-12-23T22:38:04.288416",
        "meta_mean_motion": 14.21488516,
        "meta_eccentricity": 6.947e-05,
        "meta_inclination": 98.6913,
        "meta_ra_of_asc_node": 55.5402,
        "meta_arg_of_pericenter": 18.8825,
        "meta_mean_anomaly": 341.2378,
        "meta_ephemeris_type": 0,
        "meta_classification_type": "U",
        "meta_norad_cat_id": 43689,
        "meta_element_set_no": 999,
        "meta_rev_at_epoch": 36993,
        "meta_bstar": 7.6421108e-05,
        "meta_mean_motion_dot": 1.24e-06,
        "meta_mean_motion_ddot": 0,
        "tle_line1": "1 43689U 18087A   25357.94310519  .00000124  00000+0  76421-4 0  9998",
        "tle_line2": "2 43689  98.6913  55.5402 0000694  18.8825 341.2378 14.21488516369938"
      },
      "geometry": {
        "type": "Point",
        "coordinates": [
          -80.24153651005393,
          77.56468721269236
        ]
      }
    }
  ]
}